NORAD_CAT_ID,OBJECT_NAME,OBJECT_TYPE,EPOCH,MEAN_MOTION,ECCENTRICITY,INCLINATION,RA_OF_ASC_NODE,ARG_OF_PERICENTER,MEAN_ANOMALY,BSTAR,MEAN_MOTION_DOT,MEAN_MOTION_DDOT,TLE_LINE0,TLE_LINE1,TLE_LINE2,SEMIMAJOR_AXIS,PERIOD,APOGEE,PERIGEE,DECAYED
52538.0,STARLINK-3933,PAYLOAD,2023-01-13 09:02:25,15.08837574,0.0001353,53.2152,257.5753,98.9041,261.2104,0.00011281,1.508e-05,0.0,0 STARLINK-3933,1 52538U 22051F   23013.37668124  .00001508  00000-0  11281-3 0  9999,2 52538  53.2152 257.5753 0001353  98.9041 261.2104 15.08837574 37633,6917.888000000001,95.438,540.689,538.817,0.0
52538.0,STARLINK-3933,PAYLOAD,2023-01-13 16:59:21,15.08834938,0.0001302,53.2162,256.0888,88.0073,272.1069,1.4819000000000002e-05,-5.2e-07,0.0,0 STARLINK-3933,1 52538U 22051F   23013.70788349 -.00000052  00000-0  14819-4 0  9993,2 52538  53.2162 256.0888 0001302  88.0073 272.1069 15.08834938 37751,6917.896,95.438,540.6619999999999,538.86,0.0
52538.0,STARLINK-3933,PAYLOAD,2023-01-15 00:47:04,15.08842126,0.0001626,53.2133,250.1391,72.6265,287.4904,0.00020414,2.963e-05,0.0,0 STARLINK-3933,1 52538U 22051F   23015.03268589  .00002963  00000-0  20414-3 0  9999,2 52538  53.2133 250.1391 0001626  72.6265 287.4904 15.08842126 37951,6917.874,95.437,540.864,538.614,0.0
52538.0,STARLINK-3933,PAYLOAD,2023-01-15 08:43:58,15.08846687,0.0002263,53.2146,248.6539,265.0473,95.0261,0.0001424,1.979e-05,0.0,0 STARLINK-3933,1 52538U 22051F   23015.36386924  .00001979  00000-0  14240-3 0  9995,2 52538  53.2146 248.6539 0002263 265.0473  95.0261 15.08846687 37931,6917.86,95.437,541.29,538.159,0.0
52538.0,STARLINK-3933,PAYLOAD,2023-01-15 21:27:04,15.08846029,0.0001082,53.2115,246.2741,57.9251,302.1846,0.00026371,3.912e-05,0.0,0 STARLINK-3933,1 52538U 22051F   23015.89380341  .00003912  00000-0  26371-3 0  9997,2 52538  53.2115 246.2741 0001082  57.9251 302.1846 15.08846029 38017,6917.861999999999,95.437,540.475,538.9780000000001,0.0
52538.0,STARLINK-3933,PAYLOAD,2023-01-16 08:34:46,15.08846133,0.0001324,53.216,244.1932,56.9603,303.1516,0.00024803,3.662e-05,0.0,0 STARLINK-3933,1 52538U 22051F   23016.35748388  .00003662  00000-0  24803-3 0  9998,2 52538  53.2160 244.1932 0001324  56.9603 303.1516 15.08846133 38151,6917.861999999999,95.437,540.643,538.811,0.0
52538.0,STARLINK-3933,PAYLOAD,2023-01-16 21:17:52,15.08834172,0.0001409,53.2126,241.8139,80.7226,279.3925,1.4314e-05,-6e-07,0.0,0 STARLINK-3933,1 52538U 22051F   23016.88741008 -.00000060  00000-0  14314-4 0  9995,2 52538  53.2126 241.8139 0001409  80.7226 279.3925 15.08834172 38233,6917.898,95.438,540.738,538.788,0.0
52538.0,STARLINK-3933,PAYLOAD,2023-01-17 08:25:34,15.08836315,0.0001355,53.2132,239.731,90.4741,269.6406,0.00012778,1.746e-05,0.0,0 STARLINK-3933,1 52538U 22051F   23017.35109133  .00001746  00000-0  12778-3 0  9997,2 52538  53.2132 239.7310 0001355  90.4741 269.6406 15.08836315 38234,6917.892,95.438,540.694,538.819,0.0
52538.0,STARLINK-3933,PAYLOAD,2023-01-18 00:19:25,15.08845231,0.000127,53.2131,236.757,91.6681,268.4457,0.00035201,5.3200000000000006e-05,0.0,0 STARLINK-3933,1 52538U 22051F   23018.01348990  .00005320  00000-0  35201-3 0  9995,2 52538  53.2131 236.7570 0001270  91.6681 268.4457 15.08845231 38409,6917.8640000000005,95.437,540.6080000000001,538.851,0.0
52538.0,STARLINK-3933,PAYLOAD,2023-01-18 09:51:43,15.08851627,8.02e-05,53.2141,234.9723,103.5773,256.5309,0.00047271,7.246e-05,0.0,0 STARLINK-3933,1 52538U 22051F   23018.41092591  .00007246  00000-0  47271-3 0  9991,2 52538  53.2141 234.9723 0000802 103.5773 256.5309 15.08851627 38393,6917.845,95.437,540.265,539.155,0.0
52538.0,STARLINK-3933,PAYLOAD,2023-01-18 20:59:25,15.08863873,0.0001182,53.213,232.8918,88.8798,271.2329,0.00057461,8.875e-05,0.0,0 STARLINK-3933,1 52538U 22051F   23018.87460025  .00008875  00000-0  57461-3 0  9993,2 52538  53.2130 232.8918 0001182  88.8798 271.2329 15.08863873 38468,6917.807,95.436,540.49,538.855,0.0
52538.0,STARLINK-3933,PAYLOAD,2023-01-19 00:10:11,15.08870377,0.0001209,53.213,232.2969,89.0046,271.1085,0.00070857,0.00011016,0.0,0 STARLINK-3933,1 52538U 22051F   23019.00707712  .00011016  00000-0  70857-3 0  9991,2 52538  53.2130 232.2969 0001209  89.0046 271.1085 15.08870377 38552,6917.7880000000005,95.436,540.489,538.816,0.0
52538.0,STARLINK-3933,PAYLOAD,2023-01-19 06:31:44,15.08838966,0.0001425,53.213,231.1078,87.6691,272.4464,-0.00024643,-4.208e-05,0.0,0 STARLINK-3933,1 52538U 22051F   23019.27204417 -.00004208  00000-0 -24643-3 0  9993,2 52538  53.2130 231.1078 0001425  87.6691 272.4464 15.08838966 38598,6917.884,95.438,540.734,538.763,0.0
52538.0,STARLINK-3933,PAYLOAD,2023-01-19 14:28:40,15.08832843,0.0001361999999999,53.213,229.6211,104.6227,255.4917,-0.00031034,-5.223e-05,0.0,0 STARLINK-3933,1 52538U 22051F   23019.60324562 -.00005223  00000-0 -31034-3 0  9994,2 52538  53.2130 229.6211 0001362 104.6227 255.4917 15.08832843 38574,6917.901999999999,95.438,540.7090000000001,538.825,0.0
52538.0,STARLINK-3933,PAYLOAD,2023-01-20 06:22:32,15.08835508,0.0001268,53.2124,226.6472,106.6587,253.4545,3.0236e-05,1.93e-06,0.0,0 STARLINK-3933,1 52538U 22051F   23020.26564962  .00000193  00000-0  30236-4 0  9991,2 52538  53.2124 226.6472 0001268 106.6587 253.4545 15.08835508 38676,6917.894,95.438,540.636,538.882,0.0
52538.0,STARLINK-3933,PAYLOAD,2023-01-20 20:41:00,15.08841409,0.0001215,53.2122,223.9704,107.1522,252.9603,0.00058599,9.051e-05,0.0,0 STARLINK-3933,1 52538U 22051F   23020.86181291  .00009051  00000-0  58599-3 0  9990,2 52538  53.2122 223.9704 0001215 107.1522 252.9603 15.08841409 38833,6917.876,95.437,540.582,538.901,0.0
52538.0,STARLINK-3933,PAYLOAD,2023-01-21 15:45:38,15.08841198,0.0001202,53.212,220.4017,106.9795,253.1328,0.00026697,3.964e-05,0.0,0 STARLINK-3933,1 52538U 22051F   23021.65669396  .00003964  00000-0  26697-3 0  9996,2 52538  53.2120 220.4017 0001202 106.9795 253.1328 15.08841198 38950,6917.877,95.437,540.573,538.91,0.0
52538.0,STARLINK-3933,PAYLOAD,2023-01-22 15:36:25,15.0884043,0.0001167,53.2119,215.9409,95.5168,264.5957,0.00010258,1.345e-05,0.0,0 STARLINK-3933,1 52538U 22051F   23022.65029427  .00001345  00000-0  10258-3 0  9999,2 52538  53.2119 215.9409 0001167  95.5168 264.5957 15.08840430 39109,6917.879,95.438,540.5509999999999,538.937,0.0
52538.0,STARLINK-3933,PAYLOAD,2023-01-23 18:37:58,15.08838755,0.0001097999999999,53.213,210.8843,95.5342,264.5776,0.00024077,3.546e-05,0.0,0 STARLINK-3933,1 52538U 22051F   23023.77637723  .00003546  00000-0  24077-3 0  9996,2 52538  53.2130 210.8843 0001098  95.5342 264.5776 15.08838755 39279,6917.884,95.438,540.509,538.99,0.0
52538.0,STARLINK-3933,PAYLOAD,2023-01-25 07:11:50,15.08843539,0.0001085999999999,53.2132,204.0452,86.0945,274.0171,1.7525e-05,-9e-08,0.0,0 STARLINK-3933,1 52538U 22051F   23025.29989160 -.00000009  00000-0  17525-4 0  9993,2 52538  53.2132 204.0452 0001086  86.0945 274.0171 15.08843539 39432,6917.87,95.437,540.486,538.9830000000001,0.0
52538.0,STARLINK-3933,PAYLOAD,2023-01-25 15:08:46,15.08835629,0.0001026,53.2142,202.5588,85.9301,274.1809,4.9388e-05,4.98e-06,0.0,0 STARLINK-3933,1 52538U 22051F   23025.63109746  .00000498  00000-0  49388-4 0  9998,2 52538  53.2142 202.5588 0001026  85.9301 274.1809 15.08835629 39557,6917.894,95.438,540.469,539.049,0.0
52538.0,STARLINK-3933,PAYLOAD,2023-01-25 18:19:32,15.08840976,9.29e-05,53.2143,201.9637,87.4344,272.6755,1.3976e-05,-6.5e-07,0.0,0 STARLINK-3933,1 52538U 22051F   23025.76357424 -.00000065  00000-0  13976-4 0  9995,2 52538  53.2143 201.9637 0000929  87.4344 272.6755 15.08840976 39500,6917.877,95.437,540.385,539.1,0.0
52538.0,STARLINK-3933,PAYLOAD,2023-01-25 21:30:18,15.08842513,9.65e-05,53.2142,201.3687,89.197,270.9132,1.8485e-05,6e-08,0.0,0 STARLINK-3933,1 52538U 22051F   23025.89605285  .00000006  00000-0  18485-4 0  9994,2 52538  53.2142 201.3687 0000965  89.1970 270.9132 15.08842513 39523,6917.8730000000005,95.437,540.405,539.07,0.0
52538.0,STARLINK-3933,PAYLOAD,2023-01-26 19:45:42,15.08844099,0.0001048,53.2142,197.205,91.7779,268.3333,5.1104e-05,5.26e-06,0.0,0 STARLINK-3933,1 52538U 22051F   23026.82341038  .00000526  00000-0  51104-4 0  9993,2 52538  53.2142 197.2050 0001048  91.7779 268.3333 15.08844099 39737,6917.868,95.437,540.4580000000001,539.008,0.0
52538.0,STARLINK-3933,PAYLOAD,2023-01-27 13:14:57,15.08835148,0.0001088,53.2142,193.9335,93.6394,266.4723,8.6135e-05,1.083e-05,0.0,0 STARLINK-3933,1 52538U 22051F   23027.55205539  .00001083  00000-0  86135-4 0  9990,2 52538  53.2142 193.9335 0001088  93.6394 266.4723 15.08835148 39775,6917.895,95.438,540.513,539.008,0.0
52538.0,STARLINK-3933,PAYLOAD,2023-01-27 14:50:20,15.08835901,0.0001081,53.2143,193.6361,93.4735,266.6381,9.0881e-05,1.159e-05,0.0,0 STARLINK-3933,1 52538U 22051F   23027.61829502  .00001159  00000-0  90881-4 0  9996,2 52538  53.2143 193.6361 0001081  93.4735 266.6381 15.08835901 39850,6917.893,95.438,540.506,539.01,0.0
52538.0,STARLINK-3933,PAYLOAD,2023-01-27 16:25:43,15.08836692,0.0001075999999999,53.2143,193.3387,93.203,266.9085,9.6092e-05,1.242e-05,0.0,0 STARLINK-3933,1 52538U 22051F   23027.68453459  .00001242  00000-0  96092-4 0  9990,2 52538  53.2143 193.3387 0001076  93.2030 266.9085 15.08836692 39790,6917.891,95.438,540.5,539.011,0.0
52538.0,STARLINK-3933,PAYLOAD,2023-01-28 13:05:45,15.08834082,0.0001142,53.2147,189.4718,99.652,260.4601,-7.1443e-08,-2.89e-06,0.0,0 STARLINK-3933,1 52538U 22051F   23028.54566017 -.00000289  00000-0 -71443-7 0  9999,2 52538  53.2147 189.4718 0001142  99.6520 260.4601 15.08834082 39925,6917.898,95.438,540.554,538.973,0.0
52538.0,STARLINK-3933,PAYLOAD,2023-01-28 21:02:40,15.08840106,0.0001112,53.2145,187.9857,96.4131,263.6988,4.0119e-05,3.51e-06,0.0,0 STARLINK-3933,1 52538U 22051F   23028.87685544  .00000351  00000-0  40119-4 0  9993,2 52538  53.2145 187.9857 0001112  96.4131 263.6988 15.08840106 40042,6917.88,95.438,540.514,538.976,0.0
